NORAD_CAT_ID,OBJECT_NAME,OBJECT_TYPE,EPOCH,MEAN_MOTION,ECCENTRICITY,INCLINATION,RA_OF_ASC_NODE,ARG_OF_PERICENTER,MEAN_ANOMALY,BSTAR,MEAN_MOTION_DOT,MEAN_MOTION_DDOT,TLE_LINE0,TLE_LINE1,TLE_LINE2,SEMIMAJOR_AXIS,PERIOD,APOGEE,PERIGEE,DECAYED
52345.0,STARLINK-3852,PAYLOAD,2022-10-20 11:41:39,15.08842112,0.0002333,53.2189,348.6459,38.2818,321.834,0.00012349,1.678e-05,0.0,0 STARLINK-3852,1 52345U 22045Q   22293.48726146  .00001678  00000-0  12349-3 0  9992,2 52345  53.2189 348.6459 0002333  38.2818 321.8340 15.08842112 29148,6917.874,95.437,541.3530000000002,538.125,0.0
52345.0,STARLINK-3852,PAYLOAD,2022-10-20 13:17:02,15.08844654,0.0002329,53.2188,348.3483,38.1181,321.9976,0.00014253,1.981e-05,0.0,0 STARLINK-3852,1 52345U 22045Q   22293.55349936  .00001981  00000-0  14253-3 0  9991,2 52345  53.2188 348.3483 0002329  38.1181 321.9976 15.08844654 29158,6917.866,95.437,541.342,538.12,0.0
52345.0,STARLINK-3852,PAYLOAD,2022-10-21 03:35:30,15.0884101,0.0002348,53.2184,345.6711,37.6877,322.4279,9.6081e-05,1.241e-05,0.0,0 STARLINK-3852,1 52345U 22045Q   22294.14966294  .00001241  00000-0  96081-4 0  9998,2 52345  53.2184 345.6711 0002348  37.6877 322.4279 15.08841010 29240,6917.877,95.437,541.367,538.118,0.0
52345.0,STARLINK-3852,PAYLOAD,2022-10-21 11:32:26,15.08846999,0.0002275,53.2188,344.1841,39.2513,320.8644,7.761899999999999e-05,9.47e-06,0.0,0 STARLINK-3852,1 52345U 22045Q   22294.48085808  .00000947  00000-0  77619-4 0  9996,2 52345  53.2188 344.1841 0002275  39.2513 320.8644 15.08846999 29290,6917.859,95.437,541.298,538.15,0.0
52345.0,STARLINK-3852,PAYLOAD,2022-10-22 09:47:50,15.08842902,0.0002298,53.2184,340.022,34.3458,325.7683,2.6363e-05,1.31e-06,0.0,0 STARLINK-3852,1 52345U 22045Q   22295.40822039  .00000131  00000-0  26363-4 0  9999,2 52345  53.2184 340.0220 0002298  34.3458 325.7683 15.08842902 29434,6917.871999999999,95.437,541.326,538.1469999999998,0.0
52345.0,STARLINK-3852,PAYLOAD,2022-10-23 12:49:22,15.08882707,0.0002381,53.2186,334.967,28.6025,331.5098,-0.00050102,-8.263e-05,0.0,0 STARLINK-3852,1 52345U 22045Q   22296.53428352 -.00008263  00000-0 -50102-3 0  9997,2 52345  53.2186 334.9670 0002381  28.6025 331.5098 15.08882707 29607,6917.75,95.435,541.262,537.9680000000002,0.0
52345.0,STARLINK-3852,PAYLOAD,2022-10-23 19:10:55,15.08847721,0.0002359,53.2188,333.7777,34.2622,325.8522,9.6146e-05,1.242e-05,0.0,0 STARLINK-3852,1 52345U 22045Q   22296.79925228  .00001242  00000-0  96146-4 0  9996,2 52345  53.2188 333.7777 0002359  34.2622 325.8522 15.08847721 29644,6917.857,95.437,541.354,538.09,0.0
52345.0,STARLINK-3852,PAYLOAD,2022-10-24 11:04:47,15.08836175,0.00028,53.2188,330.8054,22.0129,338.0983,-2.7658e-05,-7.29e-06,0.0,0 STARLINK-3852,1 52345U 22045Q   22297.46166147 -.00000729  00000-0 -27658-4 0  9991,2 52345  53.2188 330.8054 0002800  22.0129 338.0983 15.08836175 29747,6917.892,95.438,541.694,537.82,0.0
52345.0,STARLINK-3852,PAYLOAD,2022-10-24 19:01:44,15.08818396,0.0002503,53.219,329.3154,36.633,323.4833,-0.00012605,-2.293e-05,0.0,0 STARLINK-3852,1 52345U 22045Q   22297.79287913 -.00002293  00000-0 -12605-3 0  9995,2 52345  53.2190 329.3154 0002503  36.6330 323.4833 15.08818396 29791,6917.946,95.439,541.543,538.08,0.0
52345.0,STARLINK-3852,PAYLOAD,2022-10-25 09:20:13,15.08823819,0.0002363,53.2183,326.641,34.1458,325.9686,-8.8644e-05,-1.698e-05,0.0,0 STARLINK-3852,1 52345U 22045Q   22298.38904015 -.00001698  00000-0 -88644-4 0  9995,2 52345  53.2183 326.6410 0002363  34.1458 325.9686 15.08823819 29885,6917.93,95.439,541.43,538.16,0.0
52345.0,STARLINK-3852,PAYLOAD,2022-10-26 02:49:27,15.08830578,0.0002421999999999,53.2184,323.3701,33.5,326.6145,-3.8375e-05,-8.99e-06,0.0,0 STARLINK-3852,1 52345U 22045Q   22299.11768099 -.00000899  00000-0 -38375-4 0  9995,2 52345  53.2184 323.3701 0002422  33.5000 326.6145 15.08830578 29995,6917.909000000002,95.438,541.45,538.099,0.0
52345.0,STARLINK-3852,PAYLOAD,2022-10-26 09:10:59,15.08846427,0.0002689,53.2185,322.1805,42.2222,317.8977,-0.00017667,-3.1e-05,0.0,0 STARLINK-3852,1 52345U 22045Q   22299.38263624 -.00003100  00000-0 -17667-3 0  9996,2 52345  53.2185 322.1805 0002689  42.2222 317.8977 15.08846427 30038,6917.861,95.437,541.586,537.866,0.0
52345.0,STARLINK-3852,PAYLOAD,2022-10-26 18:43:19,15.08828552,0.0002423999999999,53.2185,320.3964,37.1849,322.9311,0.00024642,3.635e-05,0.0,0 STARLINK-3852,1 52345U 22045Q   22299.78008244  .00003635  00000-0  24642-3 0  9997,2 52345  53.2185 320.3964 0002424  37.1849 322.9311 15.08828552 30093,6917.915,95.438,541.457,538.1030000000002,0.0
52345.0,STARLINK-3852,PAYLOAD,2022-10-27 09:01:47,15.08848495,0.0002566999999999,53.2175,317.7206,36.7678,323.349,0.00047197,7.233e-05,0.0,0 STARLINK-3852,1 52345U 22045Q   22300.37624111  .00007233  00000-0  47197-3 0  9990,2 52345  53.2175 317.7206 0002567  36.7678 323.3490 15.08848495 30185,6917.854,95.437,541.495,537.944,0.0
52345.0,STARLINK-3852,PAYLOAD,2022-10-27 18:34:05,15.08863852,0.0002615,53.2171,315.9362,37.5817,322.5357,0.00062498,9.679e-05,0.0,0 STARLINK-3852,1 52345U 22045Q   22300.77367414  .00009679  00000-0  62498-3 0  9991,2 52345  53.2171 315.9362 0002615  37.5817 322.5357 15.08863852 30246,6917.807,95.436,541.481,537.863,0.0
52345.0,STARLINK-3852,PAYLOAD,2022-10-28 07:17:09,15.08863424,0.0002552999999999,53.2169,313.5564,39.744,320.3739,0.00037338,5.663e-05,0.0,0 STARLINK-3852,1 52345U 22045Q   22301.30358792  .00005663  00000-0  37338-3 0  9994,2 52345  53.2169 313.5564 0002553  39.7440 320.3739 15.08863424 30322,6917.809,95.436,541.44,537.908,0.0
52345.0,STARLINK-3852,PAYLOAD,2022-10-28 18:24:51,15.08853276,0.0002525999999999,53.2165,311.4743,39.6441,320.4735,4.0522e-05,3.57e-06,0.0,0 STARLINK-3852,1 52345U 22045Q   22301.76726600  .00000357  00000-0  40522-4 0  9996,2 52345  53.2165 311.4743 0002526  39.6441 320.4735 15.08853276 30392,6917.84,95.437,541.452,537.957,0.0
52345.0,STARLINK-3852,PAYLOAD,2022-10-29 07:07:56,15.08854637,0.0002515,53.2171,309.0953,36.4319,323.6844,3.8138e-05,3.19e-06,0.0,0 STARLINK-3852,1 52345U 22045Q   22302.29718052  .00000319  00000-0  38138-4 0  9995,2 52345  53.2171 309.0953 0002515  36.4319 323.6844 15.08854637 30479,6917.8359999999975,95.437,541.44,537.961,0.0
52345.0,STARLINK-3852,PAYLOAD,2022-10-30 05:23:20,15.08840388,0.0002366,53.2171,304.9325,37.1378,322.9777,-0.00011736,-2.156e-05,0.0,0 STARLINK-3852,1 52345U 22045Q   22303.22454398 -.00002156  00000-0 -11736-3 0  9996,2 52345  53.2171 304.9325 0002366  37.1378 322.9777 15.08840388 30614,6917.879,95.438,541.381,538.107,0.0
52345.0,STARLINK-3852,PAYLOAD,2022-10-31 08:24:53,15.08843612,0.0002367,53.2177,299.8776,35.6853,324.4297,7.0295e-05,8.31e-06,0.0,0 STARLINK-3852,1 52345U 22045Q   22304.35061953  .00000831  00000-0  70295-4 0  9994,2 52345  53.2177 299.8776 0002367  35.6853 324.4297 15.08843612 30789,6917.869000000002,95.437,541.372,538.097,0.0
52345.0,STARLINK-3852,PAYLOAD,2022-11-01 03:29:31,15.08837481,0.0002302,53.218,296.3092,39.7838,320.3322,0.00015022,2.103e-05,0.0,0 STARLINK-3852,1 52345U 22045Q   22305.14550282  .00002103  00000-0  15022-3 0  9990,2 52345  53.2180 296.3092 0002302  39.7838 320.3322 15.08837481 30908,6917.888000000001,95.438,541.346,538.161,0.0
52345.0,STARLINK-3852,PAYLOAD,2022-11-01 06:40:17,15.08837382,0.0002437,53.218,295.7153,30.0805,330.0327,0.00013203,1.813e-05,0.0,0 STARLINK-3852,1 52345U 22045Q   22305.27798499  .00001813  00000-0  13203-3 0  9994,2 52345  53.2180 295.7153 0002437  30.0805 330.0327 15.08837382 30921,6917.888000000001,95.438,541.439,538.068,0.0
52345.0,STARLINK-3852,PAYLOAD,2022-11-01 16:12:36,15.08854115,0.0002387,53.2182,293.9309,31.0812,329.0321,-0.00050278,-8.285e-05,0.0,0 STARLINK-3852,1 52345U 22045Q   22305.67542725 -.00008285  00000-0 -50278-3 0  9992,2 52345  53.2182 293.9309 0002387  31.0812 329.0321 15.08854115 30980,6917.837,95.437,541.354,538.0509999999998,0.0
52345.0,STARLINK-3852,PAYLOAD,2022-11-02 03:20:19,15.08825023,0.000241,53.2176,291.8483,33.345,326.7693,0.00014344,1.994e-05,0.0,0 STARLINK-3852,1 52345U 22045Q   22306.13911676  .00001994  00000-0  14344-3 0  9991,2 52345  53.2176 291.8483 0002410  33.3450 326.7693 15.08825023 31054,6917.926,95.439,541.4580000000002,538.124,0.0
52345.0,STARLINK-3852,PAYLOAD,2022-11-02 09:41:51,15.08835247,0.000237,53.2181,290.6604,33.9922,326.1221,5.1944e-05,5.38e-06,0.0,0 STARLINK-3852,1 52345U 22045Q   22306.40407306  .00000538  00000-0  51944-4 0  9992,2 52345  53.2181 290.6604 0002370  33.9922 326.1221 15.08835247 31091,6917.895,95.438,541.399,538.12,0.0
52345.0,STARLINK-3852,PAYLOAD,2022-11-02 20:49:34,15.08833362,0.0002369,53.2182,288.5787,30.36,329.7529,-6.1651e-06,-3.86e-06,0.0,0 STARLINK-3852,1 52345U 22045Q   22306.86775883 -.00000386  00000-0 -61651-5 0  9990,2 52345  53.2182 288.5787 0002369  30.3600 329.7529 15.08833362 31166,6917.901,95.438,541.405,538.127,0.0
52345.0,STARLINK-3852,PAYLOAD,2022-11-03 04:46:29,15.08846889,0.0002326,53.2179,287.0913,30.2705,329.8421,0.00011166,1.49e-05,0.0,0 STARLINK-3852,1 52345U 22045Q   22307.19894821  .00001490  00000-0  11166-3 0  9990,2 52345  53.2179 287.0913 0002326  30.2705 329.8421 15.08846889 31211,6917.859,95.437,541.3330000000002,538.115,0.0
52345.0,STARLINK-3852,PAYLOAD,2022-11-03 07:57:15,15.08850089,0.0002383,53.2179,286.4963,30.2729,329.84,0.00014366,1.999e-05,0.0,0 STARLINK-3852,1 52345U 22045Q   22307.33142594  .00001999  00000-0  14366-3 0  9998,2 52345  53.2179 286.4963 0002383  30.2729 329.8400 15.08850089 31234,6917.85,95.437,541.363,538.066,0.0
52345.0,STARLINK-3852,PAYLOAD,2022-11-03 20:40:20,15.08856965,0.0002337,53.2164,284.1183,30.7751,329.3378,0.00049606,7.619e-05,0.0,0 STARLINK-3852,1 52345U 22045Q   22307.86134686  .00007619  00000-0  49606-3 0  9999,2 52345  53.2164 284.1183 0002337  30.7751 329.3378 15.08856965 31313,6917.829000000002,95.436,541.31,538.077,0.0
